{
"type": "FeatureCollection",
"name": "ANCASH_SANTA_CHIMBOTE",
"crs": { "type": "name", "properties": { "name": "urn:ogc:def:crs:OGC:1.3:CRS84" } },
"features": [
{ "type": "Feature", "properties": { "DEPARTAMEN": "ANCASH", "PROVINCIA": "SANTA", "DISTRITO": "CHIMBOTE", "UBIGEO": "021801" }, "geometry": { "type": "Polygon", "coordinates": [ [ [ -78.235569986999963, -8.652919976999954 ], [ -78.235949611999956, -8.655486226999926 ], [ -78.238555486999985, -8.659075976999929 ], [ -78.237849736999976, -8.662492726999972 ], [ -78.238099611999985, -8.664285101999951 ], [ -78.23658586199997, -8.67065497699997 ], [ -78.236482861999946, -8.675311351999937 ], [ -78.235798986999953, -8.677849226999967 ], [ -78.236152361999984, -8.687888726999972 ], [ -78.235611361999986, -8.689419976999943 ], [ -78.232515736999972, -8.693832226999973 ], [ -78.230959736999978, -8.704650976999972 ], [ -78.229578111999956, -8.708412976999966 ], [ -78.229011361999937, -8.714110476999963 ], [ -78.227147611999953, -8.717527101999963 ], [ -78.226040736999948, -8.722371351999925 ], [ -78.21965561199994, -8.728798351999956 ], [ -78.218160361999935, -8.731886601999975 ], [ -78.216070111999954, -8.734327601999951 ], [ -78.212695737, -8.735960226999964 ], [ -78.210828236999987, -8.739970476999929 ], [ -78.210616861999938, -8.741617851999933 ], [ -78.20817823699997, -8.745241476999979 ], [ -78.207585861999974, -8.747452101999954 ], [ -78.204144611999936, -8.750642726999956 ], [ -78.202799986999935, -8.752716601999964 ], [ -78.198318361999952, -8.75519722699994 ], [ -78.197968486999969, -8.758003851999945 ], [ -78.198355861999971, -8.759302851999962 ], [ -78.20330073699995, -8.76255310199997 ], [ -78.206605861999947, -8.766595726999981 ], [ -78.208109986999943, -8.769512726999949 ], [ -78.209010236999973, -8.775212101999955 ], [ -78.213146611999946, -8.780907726999942 ], [ -78.215683611999964, -8.781331976999979 ], [ -78.225065736999966, -8.779221351999979 ], [ -78.227663736999943, -8.779153101999952 ], [ -78.235412361999977, -8.780816476999973 ], [ -78.239309486999957, -8.783505851999962 ], [ -78.243912986999987, -8.788519601999951 ], [ -78.247084986999937, -8.790281726999979 ], [ -78.247832986999981, -8.792051976999971 ], [ -78.250146361999953, -8.794568351999942 ], [ -78.253690111999958, -8.800370351999959 ], [ -78.252220736999959, -8.803515601999948 ], [ -78.251761736999981, -8.806716851999965 ], [ -78.252877986999977, -8.810993351999969 ], [ -78.252792611999951, -8.818542476999937 ], [ -78.248419861999935, -8.823236351999981 ], [ -78.247993986999973, -8.828504476999967 ], [ -78.246996487, -8.830369476999977 ], [ -78.246096236999961, -8.83630285199996 ], [ -78.245565236999937, -8.838262976999943 ], [ -78.244914736999988, -8.838956851999967 ], [ -78.239982361999978, -8.842121101999965 ], [ -78.235336236999956, -8.843268101999968 ], [ -78.232552486999964, -8.843430101999957 ], [ -78.226654111999949, -8.845216851999965 ], [ -78.221905611999944, -8.849419101999956 ], [ -78.216842611999937, -8.851849351999931 ], [ -78.215259236999941, -8.853064476999975 ], [ -78.212460861999944, -8.856267976999959 ], [ -78.204489986999988, -8.856579726999939 ], [ -78.203797486999974, -8.856926101999932 ], [ -78.201919486999941, -8.859961476999956 ], [ -78.200812486999951, -8.862525351999977 ], [ -78.201200361999952, -8.864671476999945 ], [ -78.203998736999949, -8.865979351999954 ], [ -78.212806611999952, -8.873503851999942 ], [ -78.216771361999974, -8.874580476999938 ], [ -78.218031486999962, -8.876252101999967 ], [ -78.220033736999937, -8.877703726999925 ], [ -78.220783361999963, -8.87908110199993 ], [ -78.223766611999963, -8.881549976999963 ], [ -78.225669611999933, -8.882218601999966 ], [ -78.22659548699994, -8.883478851999939 ], [ -78.230118861999983, -8.886204851999935 ], [ -78.233127736999961, -8.887233601999981 ], [ -78.234773736999955, -8.889908226999978 ], [ -78.235989236999956, -8.890316226999971 ], [ -78.236116111999934, -8.89188147699997 ], [ -78.235560236999959, -8.89410460199997 ], [ -78.237579986999947, -8.900219976999949 ], [ -78.235244111999975, -8.907964851999964 ], [ -78.229683986999987, -8.913834726999937 ], [ -78.228011736999974, -8.919749976999981 ], [ -78.225345861999983, -8.923584976999962 ], [ -78.216668986999935, -8.928904226999975 ], [ -78.212601361999987, -8.933633726999972 ], [ -78.202143361999958, -8.934247476999928 ], [ -78.195993736999981, -8.936714601999938 ], [ -78.19306936199996, -8.939795476999961 ], [ -78.190754111999979, -8.939739351999947 ], [ -78.19212598699994, -8.940906851999955 ], [ -78.191718736999974, -8.946228476999977 ], [ -78.188820361999944, -8.949947226999939 ], [ -78.187142986999959, -8.953835351999942 ], [ -78.186667111999952, -8.955619976999969 ], [ -78.187642736999976, -8.957690101999958 ], [ -78.185001486999965, -8.962258601999963 ], [ -78.185215611999979, -8.963852851999945 ], [ -78.182236486999955, -8.966224601999954 ], [ -78.182152361999954, -8.966777351999951 ], [ -78.183716611999955, -8.968183351999926 ], [ -78.188499236999974, -8.976083351999932 ], [ -78.195090361999974, -8.981698851999965 ], [ -78.195845736999956, -8.985968726999943 ], [ -78.202018611999961, -8.985759601999973 ], [ -78.209992236999938, -8.988933601999975 ], [ -78.21407211199994, -8.989259726999933 ], [ -78.216372611999986, -8.990385226999933 ], [ -78.219568111999934, -8.990000976999966 ], [ -78.222398361999979, -8.992743476999976 ], [ -78.226655736999987, -9.000543851999964 ], [ -78.227884361999941, -9.00158672699996 ], [ -78.231998861999955, -9.003672601999938 ], [ -78.235096736999935, -9.004447101999972 ], [ -78.238299111999936, -9.003243976999954 ], [ -78.243356611999957, -9.004429726999945 ], [ -78.247613736999938, -9.00510460199996 ], [ -78.249714111999936, -9.004886976999956 ], [ -78.252198986999986, -9.00560622699993 ], [ -78.259330361999957, -9.011835976999976 ], [ -78.266841861999978, -9.01107835199997 ], [ -78.271127736999972, -9.006649601999982 ], [ -78.271748861999981, -9.006522851999932 ], [ -78.276398486999938, -9.013978476999966 ], [ -78.278836361999936, -9.016037851999954 ], [ -78.281849861999945, -9.017488851999929 ], [ -78.283701861999987, -9.019363476999956 ], [ -78.284400361999985, -9.019443351999939 ], [ -78.284464611999965, -9.017030601999977 ], [ -78.286032111999987, -9.015330351999978 ], [ -78.292228611999974, -9.012312601999952 ], [ -78.295011611999939, -9.010415476999981 ], [ -78.303022861999978, -9.00843197699993 ], [ -78.306158361999962, -9.008512351999968 ], [ -78.308928986999945, -9.009824101999925 ], [ -78.309937486999956, -9.009695351999937 ], [ -78.310531986999933, -9.00873572699993 ], [ -78.312206986999968, -9.007829476999973 ], [ -78.314370236999935, -9.008141101999968 ], [ -78.316746361999947, -9.006903726999951 ], [ -78.318855486999951, -9.006510101999936 ], [ -78.325235111999973, -9.008993601999975 ], [ -78.326168111999948, -9.006220101999929 ], [ -78.32852498699998, -9.005787976999954 ], [ -78.333906611999964, -9.002704351999967 ], [ -78.336734861999958, -9.002115101999948 ], [ -78.338934611999946, -9.003156101999934 ], [ -78.341311111999971, -9.006828976999941 ], [ -78.343039486999942, -9.007889601999977 ], [ -78.346830236999949, -9.009009101999936 ], [ -78.350096861999987, -9.011064226999963 ], [ -78.352472611999985, -9.013211101999957 ], [ -78.35548436199997, -9.011476601999959 ], [ -78.358850362999988, -9.011228476999975 ], [ -78.361207237999963, -9.010305351999932 ], [ -78.363111487999959, -9.009253476999959 ], [ -78.364902487999984, -9.007527226999969 ], [ -78.369865487999959, -9.007227851999971 ], [ -78.374623987999939, -9.008575101999952 ], [ -78.376315487999989, -9.010250726999971 ], [ -78.377953362999961, -9.015403226999979 ], [ -78.387468612999953, -9.019929601999934 ], [ -78.389884612999936, -9.022783226999934 ], [ -78.390495612999985, -9.026081601999977 ], [ -78.391042112999969, -9.026894476999928 ], [ -78.394125112999973, -9.028744226999947 ], [ -78.396392612999989, -9.028935601999933 ], [ -78.398836737999943, -9.026887851999959 ], [ -78.402427737999972, -9.021172976999935 ], [ -78.404635737999968, -9.015468976999955 ], [ -78.404440112999964, -9.014154226999949 ], [ -78.405242237999971, -9.010947226999974 ], [ -78.406393237999964, -9.009700226999939 ], [ -78.409470612999939, -9.008727226999952 ], [ -78.413249612999948, -9.009000601999958 ], [ -78.419357362999961, -9.005888851999941 ], [ -78.422657862999984, -9.006148726999982 ], [ -78.42588098799996, -9.009290976999978 ], [ -78.426545612999973, -9.012378226999942 ], [ -78.428284862999988, -9.013851851999959 ], [ -78.434106737999969, -9.01462485199994 ], [ -78.440274112999987, -9.019033226999966 ], [ -78.44351936299995, -9.022302726999953 ], [ -78.446417987999951, -9.023529351999969 ], [ -78.452949237999974, -9.024841851999952 ], [ -78.453742237999961, -9.025708976999965 ], [ -78.453689487999952, -9.027587851999954 ], [ -78.454146487999935, -9.028568351999979 ], [ -78.45588898799997, -9.029583851999973 ], [ -78.459253112999988, -9.030519976999926 ], [ -78.461328112999979, -9.03238672699996 ], [ -78.465263612999934, -9.038080101999981 ], [ -78.468526362999967, -9.045380476999981 ], [ -78.473265362999939, -9.048305851999942 ], [ -78.478142612999989, -9.05239447699995 ], [ -78.48227736299998, -9.054378851999957 ], [ -78.483386862999964, -9.054478101999962 ], [ -78.491694862999964, -9.053512851999926 ], [ -78.493566987999941, -9.054916976999948 ], [ -78.49462873799996, -9.05669310199994 ], [ -78.502105487999984, -9.064580101999979 ], [ -78.506409112999961, -9.067086351999933 ], [ -78.510563112999989, -9.067759101999968 ], [ -78.511679737999941, -9.070093726999971 ], [ -78.51267986299996, -9.07100785199998 ], [ -78.518097612999952, -9.073076226999945 ], [ -78.522468737999986, -9.073874976999946 ], [ -78.528319737999936, -9.073960851999971 ], [ -78.532268862999956, -9.083877601999973 ], [ -78.535787612999968, -9.088270101999967 ], [ -78.537536237999973, -9.088845726999978 ], [ -78.541191112999968, -9.08598385199997 ], [ -78.543736112999966, -9.085252601999969 ], [ -78.544371112999954, -9.088496101999965 ], [ -78.54554686299997, -9.090759726999977 ], [ -78.546134862999963, -9.093443351999952 ], [ -78.540927862999979, -9.097187726999948 ], [ -78.538587612999947, -9.100288601999978 ], [ -78.538616862999959, -9.102219351999963 ], [ -78.540248049999946, -9.104685548999953 ], [ -78.539375002999975, -9.105738273999975 ], [ -78.540102168999965, -9.108559464999928 ], [ -78.543131346999985, -9.109643246999951 ], [ -78.544986569999935, -9.109699464999949 ], [ -78.553107426999986, -9.119005847999972 ], [ -78.552819116999956, -9.123645804999967 ], [ -78.55353183699998, -9.125140914999974 ], [ -78.553381918999946, -9.133798619999936 ], [ -78.553818362999948, -9.140677726999968 ], [ -78.556197237999982, -9.145115226999962 ], [ -78.55869136299998, -9.147009726999954 ], [ -78.558616131999941, -9.133420361999981 ], [ -78.560389227999963, -9.12427650099994 ], [ -78.562084395999989, -9.124779652999962 ], [ -78.560399246999964, -9.124228890999973 ], [ -78.56177030799995, -9.124536947999957 ], [ -78.560444799999971, -9.124012431999972 ], [ -78.56071269499995, -9.12314702599997 ], [ -78.561418147999973, -9.123375769999939 ], [ -78.560720393999986, -9.123061628999949 ], [ -78.560859926999967, -9.122421421999945 ], [ -78.566445948999956, -9.124249031999966 ], [ -78.566833799999984, -9.124253791999934 ], [ -78.560872887999949, -9.122355402999972 ], [ -78.561067590999983, -9.121677084999931 ], [ -78.562003495999988, -9.121910021999952 ], [ -78.561077270999988, -9.121632828999964 ], [ -78.561298760999989, -9.120620263999967 ], [ -78.562067739999975, -9.120939201999931 ], [ -78.562993350999989, -9.121167628999956 ], [ -78.561308245999953, -9.12057690499995 ], [ -78.561626252999986, -9.119123093999974 ], [ -78.563764295999988, -9.119837511999947 ], [ -78.561637057999974, -9.119073703999959 ], [ -78.56211770799996, -9.117491363999932 ], [ -78.563752397999963, -9.118171888999939 ], [ -78.563809504999938, -9.118081468999947 ], [ -78.562129606999974, -9.11744377399998 ], [ -78.562929832999941, -9.115332939999973 ], [ -78.564460534999967, -9.115959847999932 ], [ -78.562948118999941, -9.11529375799995 ], [ -78.563848125999982, -9.113376093999932 ], [ -78.565581131999977, -9.114066064999975 ], [ -78.565628149999952, -9.113966802999926 ], [ -78.56386036899994, -9.113337480999974 ], [ -78.564125328999978, -9.112501835999979 ], [ -78.566181918999973, -9.113337283999954 ], [ -78.566241996999963, -9.113219738999931 ], [ -78.564142014999959, -9.11244921499997 ], [ -78.564538766999988, -9.111197919999938 ], [ -78.565544561999957, -9.111634183999968 ], [ -78.565596803999938, -9.111537535999958 ], [ -78.56455600299995, -9.111143560999949 ], [ -78.565321164999943, -9.10933050999995 ], [ -78.566892412999948, -9.110194908999972 ], [ -78.56533989199994, -9.109287621999954 ], [ -78.570402549999983, -9.099429853999936 ], [ -78.574990094999976, -9.093158226999947 ], [ -78.575327422999976, -9.093015021999975 ], [ -78.576769024999976, -9.094087470999966 ], [ -78.576832670999977, -9.093992000999947 ], [ -78.575330606999955, -9.092836810999927 ], [ -78.576593573999958, -9.09100376799995 ], [ -78.578092088999938, -9.089331511999944 ], [ -78.580090107, -9.091128644999969 ], [ -78.578271258999962, -9.089174060999937 ], [ -78.582684168999947, -9.084159001999978 ], [ -78.588753383999972, -9.079593820999946 ], [ -78.594919918999949, -9.077497021999932 ], [ -78.600007088999973, -9.076621142999954 ], [ -78.600422909999963, -9.079266472999961 ], [ -78.600139797999987, -9.076656531999959 ], [ -78.601059913999961, -9.076506128999938 ], [ -78.601298788999941, -9.078027855999949 ], [ -78.60136956599996, -9.076346878999971 ], [ -78.605563163999989, -9.075294054999972 ], [ -78.609703678999949, -9.079815001999975 ], [ -78.611207711999953, -9.078576386999941 ], [ -78.612446327999976, -9.079912320999938 ], [ -78.61129047999998, -9.078480972999955 ], [ -78.611800301999949, -9.078209816999959 ], [ -78.610280020999937, -9.076468134999971 ], [ -78.610398100999987, -9.07477073299998 ], [ -78.610876971999971, -9.075035605999972 ], [ -78.610752340999966, -9.074534570999958 ], [ -78.611682221999956, -9.074017970999932 ], [ -78.612671143999989, -9.075257812999951 ], [ -78.612789223999982, -9.076394334999975 ], [ -78.612907303999975, -9.075375892999944 ], [ -78.616981069999952, -9.079921978999948 ], [ -78.612184063999962, -9.074239371999965 ], [ -78.614088104999951, -9.072423888999936 ], [ -78.616789188999974, -9.073471849999976 ], [ -78.620169233999945, -9.076158173999943 ], [ -78.622427516999949, -9.076497654999969 ], [ -78.622265157999948, -9.079228257999944 ], [ -78.62354886299994, -9.080306601999951 ], [ -78.624790987999972, -9.078074226999945 ], [ -78.625554737999948, -9.07812310199995 ], [ -78.626878862999945, -9.077093726999976 ], [ -78.628664112999957, -9.074113226999941 ], [ -78.629912112999989, -9.073570351999933 ], [ -78.629167987999949, -9.070574226999952 ], [ -78.629537112999969, -9.069861351999975 ], [ -78.631021487999988, -9.069591851999974 ], [ -78.631464862999962, -9.068472601999929 ], [ -78.633285112999943, -9.066777351999974 ], [ -78.632501987999945, -9.065570351999952 ], [ -78.632169862999945, -9.061970726999959 ], [ -78.631867237999984, -9.06120122699997 ], [ -78.631249987999979, -9.061060601999941 ], [ -78.630767612999989, -9.059603476999939 ], [ -78.630999987999985, -9.057507851999958 ], [ -78.632958987999984, -9.056706976999976 ], [ -78.634136737999938, -9.053333976999966 ], [ -78.638648948999958, -9.047483994999936 ], [ -78.635054737999951, -9.048062476999974 ], [ -78.633125362999976, -9.049025726999957 ], [ -78.628520112999979, -9.048539351999977 ], [ -78.627304237999965, -9.047171476999949 ], [ -78.626908237999942, -9.045181601999957 ], [ -78.627440987999989, -9.041000726999926 ], [ -78.626144487999966, -9.037886726999943 ], [ -78.624516362999941, -9.036762351999926 ], [ -78.621573487999967, -9.035812226999951 ], [ -78.619487987999946, -9.034027976999937 ], [ -78.614287112999989, -9.033117976999961 ], [ -78.612601987999938, -9.032203601999981 ], [ -78.608795487999942, -9.032297976999928 ], [ -78.603545612999937, -9.030592476999971 ], [ -78.598304612999982, -9.024742226999933 ], [ -78.591519237999989, -9.028258226999981 ], [ -78.58968873799995, -9.028420351999955 ], [ -78.585378737999974, -9.026079976999938 ], [ -78.579075862999957, -9.024226351999971 ], [ -78.573523862999934, -9.021350226999971 ], [ -78.571036862999961, -9.019709601999978 ], [ -78.570331112999952, -9.017503851999948 ], [ -78.570900362999964, -9.01557622699994 ], [ -78.575222237999981, -9.007219851999935 ], [ -78.575696237999978, -9.00360522699998 ], [ -78.577935237999952, -8.998948476999942 ], [ -78.578927737999948, -8.994349601999943 ], [ -78.581976487999952, -8.98879147699995 ], [ -78.583535237999968, -8.983766726999932 ], [ -78.583721237999953, -8.981510101999959 ], [ -78.584558362999985, -8.979199601999937 ], [ -78.584302862999948, -8.978323101999933 ], [ -78.582570112999974, -8.976633601999936 ], [ -78.582488362999982, -8.975903726999945 ], [ -78.585593737999943, -8.971982476999926 ], [ -78.591003862999969, -8.96869722699995 ], [ -78.594062487999963, -8.964783226999941 ], [ -78.599617237999951, -8.960550726999941 ], [ -78.602714737999975, -8.956665976999943 ], [ -78.604819487999976, -8.954865601999927 ], [ -78.600649862999944, -8.951685851999969 ], [ -78.597560362999957, -8.95023197699993 ], [ -78.59166248799994, -8.945999226999959 ], [ -78.589943612999946, -8.942622351999944 ], [ -78.590292987999987, -8.926560601999938 ], [ -78.589620237999952, -8.924973851999937 ], [ -78.587570737999954, -8.922974601999954 ], [ -78.585433612999964, -8.919917851999969 ], [ -78.584214862999943, -8.914426601999935 ], [ -78.583303112999943, -8.912315976999935 ], [ -78.582728987999985, -8.908415726999976 ], [ -78.580567862999942, -8.907064976999948 ], [ -78.579791237999984, -8.905444101999933 ], [ -78.578983612999934, -8.89483235199998 ], [ -78.576484737999976, -8.889046601999951 ], [ -78.578161737999949, -8.882308726999952 ], [ -78.580626987999949, -8.876777476999962 ], [ -78.582788112999935, -8.865678976999959 ], [ -78.583598612999936, -8.864170476999959 ], [ -78.587113362999958, -8.861480226999959 ], [ -78.588281112999937, -8.858677476999958 ], [ -78.585838112999966, -8.854218851999974 ], [ -78.584985362999987, -8.849244476999957 ], [ -78.582533737999938, -8.846615226999972 ], [ -78.581041487999983, -8.83698635199994 ], [ -78.578119987999969, -8.828859976999979 ], [ -78.575796237999953, -8.819729726999981 ], [ -78.570637737999959, -8.810087601999953 ], [ -78.569715112999972, -8.806065476999947 ], [ -78.565410862999954, -8.797910101999946 ], [ -78.565343112999983, -8.792598976999955 ], [ -78.560843112999976, -8.788236726999969 ], [ -78.55792398799997, -8.782384726999965 ], [ -78.551606237999977, -8.775037601999941 ], [ -78.545507612999984, -8.771850976999929 ], [ -78.542139612999961, -8.769251851999968 ], [ -78.532449987999939, -8.765229976999933 ], [ -78.530100612999945, -8.763780226999927 ], [ -78.529368112999975, -8.763111351999953 ], [ -78.529220987999963, -8.761465351999959 ], [ -78.528474237999944, -8.75996010199998 ], [ -78.526256612999987, -8.757766601999947 ], [ -78.52031961299997, -8.754616351999971 ], [ -78.518138737999948, -8.75298060199998 ], [ -78.514382737999938, -8.752677726999934 ], [ -78.51191761299998, -8.751913226999932 ], [ -78.509960362999948, -8.752314226999943 ], [ -78.50349386299996, -8.750779601999966 ], [ -78.501714237999977, -8.74876285199997 ], [ -78.500926613, -8.748655476999943 ], [ -78.498248487999945, -8.750968601999944 ], [ -78.492028362999974, -8.749830476999932 ], [ -78.489302237999937, -8.751102601999946 ], [ -78.487242487999936, -8.75116322699995 ], [ -78.484821487999966, -8.750541101999943 ], [ -78.482395987999951, -8.748073601999977 ], [ -78.478947362999975, -8.748015226999939 ], [ -78.477237112999944, -8.747149476999937 ], [ -78.474762862999967, -8.74437822699997 ], [ -78.472703112999966, -8.74365122699993 ], [ -78.469720612999936, -8.743362601999934 ], [ -78.467925362999949, -8.741532976999963 ], [ -78.466402612999957, -8.740864476999946 ], [ -78.45828486299996, -8.739713476999952 ], [ -78.455437612999958, -8.737593101999948 ], [ -78.448228362999942, -8.736926726999968 ], [ -78.444411862999971, -8.733776476999935 ], [ -78.438414362999936, -8.732746601999963 ], [ -78.437263237999957, -8.730747476999966 ], [ -78.435021737999989, -8.730081101999929 ], [ -78.434173612999984, -8.728808851999929 ], [ -78.425328862999947, -8.723901851999926 ], [ -78.425025987999959, -8.722993101999975 ], [ -78.419937112999946, -8.718873601999974 ], [ -78.417861862999985, -8.716068351999979 ], [ -78.415272487999971, -8.714148351999938 ], [ -78.414121362999936, -8.711543351999978 ], [ -78.411334487999966, -8.708756601999937 ], [ -78.410123112999941, -8.708211351999978 ], [ -78.406155862999981, -8.708521101999963 ], [ -78.403077487999951, -8.707937476999973 ], [ -78.400802987999953, -8.705982976999962 ], [ -78.398829987999989, -8.703399976999947 ], [ -78.397329987999967, -8.702559976999964 ], [ -78.392239987999972, -8.702699976999952 ], [ -78.390239987999962, -8.70230997699997 ], [ -78.387781362999988, -8.69847522699996 ], [ -78.382500862999962, -8.697688226999958 ], [ -78.379171862999954, -8.696566351999934 ], [ -78.376789112999973, -8.694236351999962 ], [ -78.373198112999944, -8.687242351999942 ], [ -78.370933487999935, -8.685411476999946 ], [ -78.363011362999941, -8.681178476999946 ], [ -78.354809986999953, -8.673279976999936 ], [ -78.351109986999973, -8.672339976999979 ], [ -78.347369986999979, -8.673789976999956 ], [ -78.345869986999958, -8.676039976999959 ], [ -78.338209986999971, -8.675959976999934 ], [ -78.336869986999943, -8.675089976999971 ], [ -78.336829986999987, -8.671649976999959 ], [ -78.335649986999954, -8.67000997699995 ], [ -78.334909986999946, -8.667199976999939 ], [ -78.334249986999964, -8.666449976999957 ], [ -78.329239986999937, -8.667669976999946 ], [ -78.327829986999973, -8.667049976999976 ], [ -78.326799986999958, -8.66546997699993 ], [ -78.325229986999943, -8.664899976999948 ], [ -78.321809986999938, -8.666199976999962 ], [ -78.315959986999985, -8.665329976999942 ], [ -78.312919986999987, -8.666799976999926 ], [ -78.310949986999958, -8.66720997699997 ], [ -78.30757998699994, -8.665759976999936 ], [ -78.301179986999955, -8.663949976999959 ], [ -78.300259986999947, -8.663199976999977 ], [ -78.298189986999944, -8.659739976999958 ], [ -78.296259986999985, -8.658719976999976 ], [ -78.294789986999945, -8.658809976999976 ], [ -78.292709986999967, -8.659919976999959 ], [ -78.291229986999952, -8.661359976999961 ], [ -78.28716998699997, -8.662549976999969 ], [ -78.28035998699994, -8.657999976999974 ], [ -78.276219986999934, -8.657579976999955 ], [ -78.274139986999955, -8.656499976999953 ], [ -78.268279986999971, -8.656779976999928 ], [ -78.261359986999935, -8.658139976999962 ], [ -78.254549986999962, -8.657409976999929 ], [ -78.247359986999982, -8.658579976999931 ], [ -78.245569986999953, -8.658079976999943 ], [ -78.243909986999938, -8.655589976999977 ], [ -78.240329986999939, -8.654079976999981 ], [ -78.235569986999963, -8.652919976999954 ] ] ] } }
]
}
